{
  "type": "FeatureCollection",
  "name": "mumbai-localities-v0.3",
  "crs": {
    "type": "name",
    "properties": {
      "name": "urn:ogc:def:crs:OGC:1.3:CRS84"
    }
  },
  "features": [
    {
      "type": "Feature",
      "properties": {
        "localityId": "andheri-west-core",
        "name": "Andheri West Core",
        "parentLocality": "Andheri West",
        "city": "Mumbai",
        "state": "Maharashtra",
        "country": "India",
        "boundaryVersion": "mumbai-localities-v0.2",
        "boundaryType": "TreeScore-defined locality analysis area",
        "isOfficialBoundary": false,
        "boundaryConfidence": "medium",
        "measurementLabel": "Satellite-derived green cover estimate",
        "methodNote": "Approximate analysis polygon created for TreeScore satellite-derived green-cover analysis. Not an official administrative boundary.",
        "sourceNote": "Boundary drawn using visible locality context, major roads, coastline, railway/metro corridors, lake/park edges and commonly understood neighbourhood extent. Held west of the Western Railway line; represents the western Andheri core (Seven/Four Bungalows, DN Nagar, Azad Nagar, station-side west) and NOT the full Andheri West real-estate footprint or deep Lokhandwala/Oshiwara.",
        "publicDisclaimer": "Locality boundaries are TreeScore-defined analysis areas, not official administrative boundaries."
      },
      "geometry": {
        "type": "Polygon",
        "coordinates": [
          [
            [
              72.818,
              19.137
            ],
            [
              72.8265,
              19.1395
            ],
            [
              72.835,
              19.138
            ],
            [
              72.841,
              19.132
            ],
            [
              72.842,
              19.1245
            ],
            [
              72.841,
              19.12
            ],
            [
              72.8355,
              19.1192
            ],
            [
              72.8285,
              19.12
            ],
            [
              72.8225,
              19.1212
            ],
            [
              72.8175,
              19.125
            ],
            [
              72.8155,
              19.1315
            ],
            [
              72.818,
              19.137
            ]
          ]
        ]
      }
    },
    {
      "type": "Feature",
      "properties": {
        "localityId": "powai-lake-urban-area",
        "name": "Powai Lake + Urban Area",
        "parentLocality": "Powai",
        "city": "Mumbai",
        "state": "Maharashtra",
        "country": "India",
        "boundaryVersion": "mumbai-localities-v0.2",
        "boundaryType": "TreeScore-defined locality analysis area",
        "isOfficialBoundary": false,
        "boundaryConfidence": "medium",
        "measurementLabel": "Satellite-derived green cover estimate",
        "methodNote": "Approximate analysis polygon created for TreeScore satellite-derived green-cover analysis. Not an official administrative boundary.",
        "sourceNote": "Tightened relative to v0.1 to focus on the Powai urban / lake-edge neighbourhood (Hiranandani area, lake-edge residential, JVLR-side urban fabric). Main Powai Lake water body excluded via inner ring. Deliberately excludes Vikhroli, Sanjay Gandhi National Park, Aarey and large institutional/forest green zones that inflated the v0.1 green-cover reading. Google Earth Engine water masking must still be applied as a backstop.",
        "publicDisclaimer": "Locality boundaries are TreeScore-defined analysis areas, not official administrative boundaries."
      },
      "geometry": {
        "type": "Polygon",
        "coordinates": [
          [
            [
              72.8905,
              19.1295
            ],
            [
              72.8975,
              19.1315
            ],
            [
              72.905,
              19.1305
            ],
            [
              72.911,
              19.1255
            ],
            [
              72.912,
              19.119
            ],
            [
              72.9095,
              19.113
            ],
            [
              72.9035,
              19.11
            ],
            [
              72.8965,
              19.1105
            ],
            [
              72.891,
              19.1145
            ],
            [
              72.8888,
              19.121
            ],
            [
              72.8895,
              19.126
            ],
            [
              72.8905,
              19.1295
            ]
          ],
          [
            [
              72.9005,
              19.128
            ],
            [
              72.9075,
              19.127
            ],
            [
              72.9095,
              19.122
            ],
            [
              72.9055,
              19.1185
            ],
            [
              72.8995,
              19.1192
            ],
            [
              72.8972,
              19.1238
            ],
            [
              72.9005,
              19.128
            ]
          ]
        ]
      }
    },
    {
      "type": "Feature",
      "properties": {
        "localityId": "juhu",
        "name": "Juhu",
        "parentLocality": "Juhu",
        "city": "Mumbai",
        "state": "Maharashtra",
        "country": "India",
        "boundaryVersion": "juhu-v0.3",
        "boundaryType": "TreeScore-defined locality analysis area",
        "isOfficialBoundary": false,
        "boundaryConfidence": "medium",
        "measurementLabel": "Satellite-derived green cover estimate",
        "methodNote": "Basemap-reviewed TreeScore analysis polygon corrected after the v0.2 real-data check exposed unintended aerodrome, lagoon and open-ground inclusion. Not an official administrative boundary.",
        "sourceNote": "Preserves the v0.2 northern, main eastern and conservative coastal residential edges. The southern edge was retraced against satellite imagery around the north and west of the lagoon/aerodrome complex, retaining the coastal residential strip while excluding the lagoon, operational/open airport land, runway-side surfaces, excess beach/sea and adjacent Santacruz/Vile Parle fabric.",
        "publicDisclaimer": "Locality boundaries are TreeScore-defined analysis areas, not official administrative boundaries."
      },
      "geometry": {
        "type": "Polygon",
        "coordinates": [
          [
            [
              72.8255,
              19.117
            ],
            [
              72.8305,
              19.1175
            ],
            [
              72.835,
              19.1135
            ],
            [
              72.836,
              19.106
            ],
            [
              72.8358,
              19.1036
            ],
            [
              72.8335,
              19.1033
            ],
            [
              72.831,
              19.1034
            ],
            [
              72.829,
              19.1033
            ],
            [
              72.8285,
              19.101
            ],
            [
              72.828,
              19.097
            ],
            [
              72.8252,
              19.0965
            ],
            [
              72.8245,
              19.105
            ],
            [
              72.8248,
              19.112
            ],
            [
              72.8255,
              19.117
            ]
          ]
        ]
      }
    }
  ]
}
