{
  "type": "FeatureCollection",
  "name": "mumbai-localities-v0.1",
  "crs": {
    "type": "name",
    "properties": { "name": "urn:ogc:def:crs:OGC:1.3:CRS84" }
  },
  "features": [
    {
      "type": "Feature",
      "properties": {
        "localityId": "andheri-west",
        "name": "Andheri West",
        "city": "Mumbai",
        "state": "Maharashtra",
        "country": "India",
        "boundaryVersion": "mumbai-localities-v0.1",
        "boundaryType": "TreeScore-defined locality analysis area",
        "isOfficialBoundary": false,
        "boundaryConfidence": "medium",
        "methodNote": "Approximate locality polygon created for TreeScore canopy-cover analysis. Not an official administrative boundary.",
        "sourceNote": "Boundary drawn using visible locality context, major roads, coastline, railway/metro corridors, lake/park edges and commonly understood neighbourhood extent. East edge held west of the Western Railway line to avoid Andheri East; west edge near the Versova coast."
      },
      "geometry": {
        "type": "Polygon",
        "coordinates": [
          [
            [72.8175, 19.1380],
            [72.8270, 19.1410],
            [72.8360, 19.1395],
            [72.8420, 19.1330],
            [72.8425, 19.1240],
            [72.8415, 19.1195],
            [72.8360, 19.1190],
            [72.8290, 19.1200],
            [72.8230, 19.1210],
            [72.8175, 19.1250],
            [72.8150, 19.1320],
            [72.8175, 19.1380]
          ]
        ]
      }
    },
    {
      "type": "Feature",
      "properties": {
        "localityId": "powai",
        "name": "Powai",
        "city": "Mumbai",
        "state": "Maharashtra",
        "country": "India",
        "boundaryVersion": "mumbai-localities-v0.1",
        "boundaryType": "TreeScore-defined locality analysis area",
        "isOfficialBoundary": false,
        "boundaryConfidence": "medium",
        "methodNote": "Approximate locality polygon created for TreeScore canopy-cover analysis. Not an official administrative boundary. Inner ring excludes the main Powai Lake water body from the land area.",
        "sourceNote": "Boundary drawn around the commonly understood Powai urban fabric (Hiranandani area, lake-edge residential, JVLR corridor). Touches the IIT Bombay edge only. Excludes Vikhroli and the Sanjay Gandhi National Park influence zone. Main lake water body cut out as an inner ring; any residual water should also be masked during NDVI analysis."
      },
      "geometry": {
        "type": "Polygon",
        "coordinates": [
          [
            [72.8920, 19.1330],
            [72.9000, 19.1360],
            [72.9090, 19.1330],
            [72.9150, 19.1270],
            [72.9160, 19.1190],
            [72.9130, 19.1110],
            [72.9060, 19.1070],
            [72.8975, 19.1075],
            [72.8910, 19.1120],
            [72.8885, 19.1200],
            [72.8895, 19.1280],
            [72.8920, 19.1330]
          ],
          [
            [72.9010, 19.1290],
            [72.9075, 19.1285],
            [72.9095, 19.1235],
            [72.9060, 19.1195],
            [72.9000, 19.1200],
            [72.8975, 19.1245],
            [72.9010, 19.1290]
          ]
        ]
      }
    },
    {
      "type": "Feature",
      "properties": {
        "localityId": "juhu",
        "name": "Juhu",
        "city": "Mumbai",
        "state": "Maharashtra",
        "country": "India",
        "boundaryVersion": "mumbai-localities-v0.1",
        "boundaryType": "TreeScore-defined locality analysis area",
        "isOfficialBoundary": false,
        "boundaryConfidence": "medium",
        "methodNote": "Approximate locality polygon created for TreeScore canopy-cover analysis. Not an official administrative boundary.",
        "sourceNote": "Boundary drawn using the Arabian Sea coastline/beach as the western edge and the commonly understood Juhu residential/coastal neighbourhood. Kept conservative to avoid extending into Vile Parle, Santacruz, Andheri West or Versova."
      },
      "geometry": {
        "type": "Polygon",
        "coordinates": [
          [
            [72.8235, 19.1175],
            [72.8300, 19.1180],
            [72.8350, 19.1140],
            [72.8360, 19.1060],
            [72.8350, 19.0980],
            [72.8320, 19.0915],
            [72.8270, 19.0905],
            [72.8235, 19.0960],
            [72.8225, 19.1050],
            [72.8230, 19.1120],
            [72.8235, 19.1175]
          ]
        ]
      }
    }
  ]
}
